NORAD_CAT_ID,OBJECT_NAME,OBJECT_TYPE,EPOCH,MEAN_MOTION,ECCENTRICITY,INCLINATION,RA_OF_ASC_NODE,ARG_OF_PERICENTER,MEAN_ANOMALY,BSTAR,MEAN_MOTION_DOT,MEAN_MOTION_DDOT,TLE_LINE0,TLE_LINE1,TLE_LINE2,SEMIMAJOR_AXIS,PERIOD,APOGEE,PERIGEE,DECAYED
54759.0,STARLINK-5215,PAYLOAD,2023-05-15 07:17:04,15.0884526,0.0001117,53.2177,340.4431,81.8666,278.2453,7.3005e-06,-1.72e-06,0.0,0 STARLINK-5215,1 54759U 22175B   23135.30352202 -.00000172  00000-0  73005-5 0  9999,2 54759  53.2177 340.4431 0001117  81.8666 278.2453 15.08845260 22421,6917.864,95.437,540.502,538.957,0.0
54759.0,STARLINK-5215,PAYLOAD,2023-05-15 20:00:09,15.08844923,0.0001146,53.2178,338.0634,84.1524,275.9599,6.3584e-05,7.24e-06,0.0,0 STARLINK-5215,1 54759U 22175B   23135.83344104  .00000724  00000-0  63584-4 0  9991,2 54759  53.2178 338.0634 0001146  84.1524 275.9599 15.08844923 24669,6917.865,95.437,540.523,538.938,0.0
54759.0,STARLINK-5215,PAYLOAD,2023-05-16 13:29:24,15.08840316,0.0001215,53.2174,334.7913,86.9204,273.1928,4.796e-05,4.76e-06,0.0,0 STARLINK-5215,1 54759U 22175B   23136.56208411  .00000476  00000-0  47960-4 0  9996,2 54759  53.2174 334.7913 0001215  86.9204 273.1928 15.08840316 22611,6917.879,95.438,540.585,538.904,0.0
54759.0,STARLINK-5215,PAYLOAD,2023-05-16 19:50:56,15.08844212,0.0001221,53.2172,333.602,86.3063,273.8069,8.2417e-05,1.024e-05,0.0,0 STARLINK-5215,1 54759U 22175B   23136.82704004  .00001024  00000-0  82417-4 0  9990,2 54759  53.2172 333.6020 0001221  86.3063 273.8069 15.08844212 24816,6917.868,95.437,540.577,538.888,0.0
54759.0,STARLINK-5215,PAYLOAD,2023-05-17 02:12:29,15.08828246,0.0001223,53.2175,332.4121,87.1856,272.9276,-5.0049e-05,-1.084e-05,0.0,0 STARLINK-5215,1 54759U 22175B   23137.09201261 -.00001084  00000-0 -50049-4 0  9991,2 54759  53.2175 332.4121 0001223  87.1856 272.9276 15.08828246 22692,6917.916,95.438,540.627,538.935,0.0
54759.0,STARLINK-5215,PAYLOAD,2023-05-17 19:41:43,15.08840458,0.0001149,53.2177,329.1425,88.3635,271.7489,1.9403e-05,2.1e-07,0.0,0 STARLINK-5215,1 54759U 22175B   23137.82064508  .00000021  00000-0  19403-4 0  9990,2 54759  53.2177 329.1425 0001149  88.3635 271.7489 15.08840458 22804,6917.879,95.438,540.539,538.949,0.0
54759.0,STARLINK-5215,PAYLOAD,2023-05-18 05:14:03,15.0883163,0.0001042,53.2179,327.3581,86.6038,273.5074,6.2763e-07,-2.78e-06,0.0,0 STARLINK-5215,1 54759U 22175B   23138.21809241 -.00000278  00000-0  62763-6 0  9999,2 54759  53.2179 327.3581 0001042  86.6038 273.5074 15.08831630 22867,6917.906,95.438,540.492,539.05,0.0
54759.0,STARLINK-5215,PAYLOAD,2023-05-18 21:07:54,15.08840933,0.0001072,53.2177,324.3846,79.6974,280.4139,4.6429e-05,4.51e-06,0.0,0 STARLINK-5215,1 54759U 22175B   23138.88048720  .00000451  00000-0  46429-4 0  9990,2 54759  53.2177 324.3846 0001072  79.6974 280.4139 15.08840933 25127,6917.878,95.437,540.484,539.001,0.0
54759.0,STARLINK-5215,PAYLOAD,2023-05-18 22:43:17,15.0884113,0.0001109,53.2179,324.0864,80.5832,279.5286,4.6232e-05,4.48e-06,0.0,0 STARLINK-5215,1 54759U 22175B   23138.94672717  .00000448  00000-0  46232-4 0  9994,2 54759  53.2179 324.0864 0001109  80.5832 279.5286 15.08841130 22973,6917.877,95.437,540.509,538.975,0.0
54759.0,STARLINK-5215,PAYLOAD,2023-05-19 14:37:09,15.08833262,0.0001053,53.2177,321.1139,89.8081,270.3032,0.00013231,1.818e-05,0.0,0 STARLINK-5215,1 54759U 22175B   23139.60913331  .00001818  00000-0  13231-3 0  9992,2 54759  53.2177 321.1139 0001053  89.8081 270.3032 15.08833262 23077,6917.901,95.438,540.494,539.038,0.0
54759.0,STARLINK-5215,PAYLOAD,2023-05-19 19:23:18,15.08835087,0.0001006,53.2168,320.2217,85.0792,275.0315,3.1729e-05,2.17e-06,0.0,0 STARLINK-5215,1 54759U 22175B   23139.80785053  .00000217  00000-0  31729-4 0  9997,2 54759  53.2168 320.2217 0001006  85.0792 275.0315 15.08835087 25265,6917.895,95.438,540.456,539.064,0.0
54759.0,STARLINK-5215,PAYLOAD,2023-05-20 17:38:41,15.08855305,0.0001002,53.2164,316.0587,90.2356,269.8751,0.00037727,5.724e-05,0.0,0 STARLINK-5215,1 54759U 22175B   23140.73520335  .00005724  00000-0  37727-3 0  9992,2 54759  53.2164 316.0587 0001002  90.2356 269.8751 15.08855305 23240,6917.834,95.437,540.392,539.005,0.0
54759.0,STARLINK-5215,PAYLOAD,2023-05-20 19:14:04,15.08859658,0.0001038,53.2164,315.7612,88.9758,271.1354,0.00046622,7.144e-05,0.0,0 STARLINK-5215,1 54759U 22175B   23140.80144170  .00007144  00000-0  46622-3 0  9991,2 54759  53.2164 315.7612 0001038  88.9758 271.1354 15.08859658 25415,6917.82,95.436,540.403,538.967,0.0
54759.0,STARLINK-5215,PAYLOAD,2023-05-21 04:46:23,15.08845711,0.0001064,53.217,313.9753,94.6946,265.4168,0.00018709,2.691e-05,0.0,0 STARLINK-5215,1 54759U 22175B   23141.19888545  .00002691  00000-0  18709-3 0  9992,2 54759  53.2170 313.9753 0001064  94.6946 265.4168 15.08845711 23311,6917.863,95.437,540.464,538.992,0.0
54759.0,STARLINK-5215,PAYLOAD,2023-05-21 17:29:29,15.08829548,8.65e-05,53.2162,311.5982,102.5785,257.5304,-0.00016327,-2.884e-05,0.0,0 STARLINK-5215,1 54759U 22175B   23141.72881148 -.00002884  00000-0 -16327-3 0  9993,2 54759  53.2162 311.5982 0000865 102.5785 257.5304 15.08829548 23390,6917.912,95.438,540.376,539.179,0.0
54759.0,STARLINK-5215,PAYLOAD,2023-05-21 20:40:15,15.08839086,9.74e-05,53.2156,311.0045,98.1004,262.0099,0.0002125,3.096e-05,0.0,0 STARLINK-5215,1 54759U 22175B   23141.86129119  .00003096  00000-0  21250-3 0  9996,2 54759  53.2156 311.0045 0000974  98.1004 262.0099 15.08839086 25575,6917.883,95.438,540.422,539.074,0.0
54759.0,STARLINK-5215,PAYLOAD,2023-05-22 17:20:16,15.08861665,9.28e-05,53.2162,307.1377,100.9368,259.1728,0.0012745,0.00020066,0.0,0 STARLINK-5215,1 54759U 22175B   23142.72241028  .00020066  00000-0  12745-2 0  9990,2 54759  53.2162 307.1377 0000928 100.9368 259.1728 15.08861665 23549,6917.814,95.436,540.321,539.037,0.0
54759.0,STARLINK-5215,PAYLOAD,2023-05-22 20:31:02,15.08867484,9.07e-05,53.2164,306.5431,97.152,262.9576,0.0013488,0.00021259,0.0,0 STARLINK-5215,1 54759U 22175B   23142.85488793  .00021259  00000-0  13488-2 0  9996,2 54759  53.2164 306.5431 0000907  97.1520 262.9576 15.08867484 25729,6917.796,95.436,540.289,539.034,0.0
54759.0,STARLINK-5215,PAYLOAD,2023-05-23 10:49:30,15.08852248,0.0001634,53.2164,303.8657,91.5829,268.535,0.00058795,9.085e-05,0.0,0 STARLINK-5215,1 54759U 22175B   23143.45105154  .00009085  00000-0  58795-3 0  9994,2 54759  53.2164 303.8657 0001634  91.5829 268.5350 15.08852248 23651,6917.843,95.437,540.838,538.578,0.0
54759.0,STARLINK-5215,PAYLOAD,2023-05-23 17:11:03,15.08845719,0.000134,53.2169,302.6767,88.3087,271.8059,0.00040161,6.11e-05,0.0,0 STARLINK-5215,1 54759U 22175B   23143.71601244  .00006110  00000-0  40161-3 0  9998,2 54759  53.2169 302.6767 0001340  88.3087 271.8059 15.08845719 23691,6917.863,95.437,540.655,538.801,0.0
54759.0,STARLINK-5215,PAYLOAD,2023-05-24 15:26:27,15.08840587,0.000105,53.2178,298.5151,84.522,275.5892,0.00031171,4.677e-05,0.0,0 STARLINK-5215,1 54759U 22175B   23144.64337617  .00004677  00000-0  31171-3 0  9998,2 54759  53.2178 298.5151 0001050  84.5220 275.5892 15.08840587 23836,6917.879,95.438,540.47,539.017,0.0
54759.0,STARLINK-5215,PAYLOAD,2023-05-25 15:17:14,15.08842172,9.52e-05,53.2172,294.0547,82.7607,277.3493,0.00027481,4.089e-05,0.0,0 STARLINK-5215,1 54759U 22175B   23145.63697661  .00004089  00000-0  27481-3 0  9992,2 54759  53.2172 294.0547 0000952  82.7607 277.3493 15.08842172 23984,6917.874,95.437,540.397,539.08,0.0
54759.0,STARLINK-5215,PAYLOAD,2023-05-26 13:32:38,15.08842877,9.08e-05,53.2167,289.8919,80.3705,279.739,9.4593e-05,1.218e-05,0.0,0 STARLINK-5215,1 54759U 22175B   23146.56433452  .00001218  00000-0  94593-4 0  9991,2 54759  53.2167 289.8919 0000908  80.3705 279.7390 15.08842877 26287,6917.872,95.437,540.365,539.108,0.0
54759.0,STARLINK-5215,PAYLOAD,2023-05-26 16:43:24,15.08845216,9.07e-05,53.2167,289.297,80.1405,279.9689,0.00012337,1.677e-05,0.0,0 STARLINK-5215,1 54759U 22175B   23146.69681318  .00001677  00000-0  12337-3 0  9995,2 54759  53.2167 289.2970 0000907  80.1405 279.9689 15.08845216 24148,6917.864,95.437,540.357,539.102,0.0
54759.0,STARLINK-5215,PAYLOAD,2023-05-27 02:15:43,15.08840485,9.17e-05,53.2165,287.5118,83.9265,276.1832,2.1476e-05,5.4e-07,0.0,0 STARLINK-5215,1 54759U 22175B   23147.09425481  .00000054  00000-0  21476-4 0  9990,2 54759  53.2165 287.5118 0000917  83.9265 276.1832 15.08840485 24206,6917.879,95.438,540.378,539.11,0.0
54759.0,STARLINK-5215,PAYLOAD,2023-05-27 19:44:58,15.08839465,0.000113,53.2174,284.2405,98.953,261.159,5.7861e-05,6.33e-06,0.0,0 STARLINK-5215,1 54759U 22175B   23147.82289937  .00000633  00000-0  57861-4 0  9995,2 54759  53.2174 284.2405 0001130  98.9530 261.1590 15.08839465 26470,6917.882,95.438,540.529,538.965,0.0
54759.0,STARLINK-5215,PAYLOAD,2023-05-28 02:06:31,15.08839061,9.31e-05,53.2175,283.0513,91.5747,268.5352,8.7486e-05,1.105e-05,0.0,0 STARLINK-5215,1 54759U 22175B   23148.08785908  .00001105  00000-0  87486-4 0  9994,2 54759  53.2175 283.0513 0000931  91.5747 268.5352 15.08839061 26519,6917.883,95.438,540.392,539.104,0.0
54759.0,STARLINK-5215,PAYLOAD,2023-05-28 16:24:58,15.08848458,9.36e-05,53.2175,280.3748,90.1128,269.9972,0.00012365,1.681e-05,0.0,0 STARLINK-5215,1 54759U 22175B   23148.68401217  .00001681  00000-0  12365-3 0  9990,2 54759  53.2175 280.3748 0000936  90.1128 269.9972 15.08848458 24445,6917.855,95.437,540.367,539.072,0.0
54759.0,STARLINK-5215,PAYLOAD,2023-05-29 01:57:24,15.08767319,0.0001225,53.2186,278.5913,101.8529,258.2601,-0.00050737,-8.337e-05,0.0,0 STARLINK-5215,1 54759U 22175B   23149.08153057 -.00008337  00000-0 -50737-3 0  9993,2 54759  53.2186 278.5913 0001225 101.8529 258.2601 15.08767319 24500,6918.103,95.442,540.815,539.12,0.0
54759.0,STARLINK-5215,PAYLOAD,2023-05-29 08:18:54,15.08806999,6.74e-05,53.2185,277.401,103.0806,257.0261,-9.2628e-05,-1.76e-05,0.0,0 STARLINK-5215,1 54759U 22175B   23149.34646109 -.00001760  00000-0 -92628-4 0  9996,2 54759  53.2185 277.4010 0000674 103.0806 257.0261 15.08806999 24545,6917.981,95.44,540.313,539.38,0.0
